ONEWEB-0176             
1 48210U 21031A   25298.81232202 -.00000110  00000+0 -33197-3 0  9997
2 48210  87.9022 336.3914 0001979  98.1342 262.0012 13.14500831217523
ONEWEB-0184             
1 48211U 21031B   25298.86148889  .00000153  00000+0  37950-3 0  9996
2 48211  87.9027 336.3571 0002579 110.4456 249.6951 13.14501317217500
ONEWEB-0179             
1 48212U 21031C   25298.83215302 -.00000274  00000+0 -77392-3 0  9999
2 48212  87.9017 336.3745 0001890  92.6669 267.4677 13.14502676217541
ONEWEB-0180             
1 48213U 21031D   25298.86466325  .00000262  00000+0  67337-3 0  9999
2 48213  87.9028 336.3625 0002171  93.3427 266.7951 13.14503585217439
ONEWEB-0218             
1 48214U 21031E   25298.81075134  .00000036  00000+0  63192-4 0  9994
2 48214  87.9031 336.3739 0002726 104.9160 255.2272 13.14502810217584
ONEWEB-0209             
1 48215U 21031F   25298.79964648  .00000239  00000+0  61047-3 0  9990
2 48215  87.9023 336.4172 0001977  90.4321 269.7036 13.14503376217589
ONEWEB-0198             
1 48216U 21031G   25298.63167382  .00000189  00000+0  47472-3 0  9994
2 48216  87.9017 336.4482 0002340  94.9386 265.2011 13.14504028217671
ONEWEB-0189             
1 48217U 21031H   25298.87258307  .00000197  00000+0  49617-3 0  9991
2 48217  87.9018 336.3736 0002279  95.7322 264.4068 13.14503619217447
